[{"OBJECT_NAME":"CHUANGXIN 1-03 (CX-1-03)","OBJECT_ID":"2011-068A","EPOCH":"2026-03-09T23:48:05.343264","MEAN_MOTION":14.30514213,"ECCENTRICITY":0.00158467,"INCLINATION":98.7066,"RA_OF_ASC_NODE":86.521,"ARG_OF_PERICENTER":50.1728,"MEAN_ANOMALY":9.9604,"EPHEMERIS_TYPE":0,"CLASSIFICATION_TYPE":"U","NORAD_CAT_ID":37930,"ELEMENT_SET_NO":999,"REV_AT_EPOCH":74647,"BSTAR":-1.9220958e-5,"MEAN_MOTION_DOT":-9.5e-7,"MEAN_MOTION_DDOT":0},{"OBJECT_NAME":"FENGYUN 1C DEB","OBJECT_ID":"1999-025BZJ","EPOCH":"2026-03-09T04:40:14.501856","MEAN_MOTION":13.93609095,"ECCENTRICITY":0.01847454,"INCLINATION":102.3137,"RA_OF_ASC_NODE":328.2289,"ARG_OF_PERICENTER":100.2792,"MEAN_ANOMALY":261.9243,"EPHEMERIS_TYPE":0,"CLASSIFICATION_TYPE":"U","NORAD_CAT_ID":31567,"ELEMENT_SET_NO":999,"REV_AT_EPOCH":68613,"BSTAR":0.0028975181,"MEAN_MOTION_DOT":4.316e-5,"MEAN_MOTION_DDOT":0}]
